STARLINK-4621           
1 53676U 22105AE  26068.66720969 -.00001041  00000+0 -76561-4 0  9990
2 53676  97.6010 310.1897 0003310  33.3535 326.7897 15.01252403193233
ICEYE-X43               
1 60539U 24149BZ  26068.94244105  .00004424  00000+0  36668-3 0  9999
2 60539  97.6823 147.2527 0002458  59.9226 300.2241 14.99337202 85241
